{
  "id": 874048109,
  "type": "Feature",
  "properties": {
    "addr:city":"Glover",
    "addr:full":"753 Heights Rd Glover, Vt 05839",
    "addr:house_number":"753",
    "addr:housenumber":"753",
    "addr:phone":"+1 802-525-3031",
    "addr:postcode":"05839",
    "addr:road":"Heights Rd",
    "addr:state":"VT",
    "addr:street":"Heights Rd",
    "edtf:cessation":"uuuu",
    "edtf:inception":"uuuu",
    "geom:area":0.0,
    "geom:bbox":"-72.174,44.68315,-72.174,44.68315",
    "geom:latitude":44.68315,
    "geom:longitude":-72.174,
    "iso:country":"US",
    "mz:hierarchy_label":1,
    "mz:is_current":1,
    "sg:address":"753 Heights Rd",
    "sg:city":"Glover",
    "sg:classifiers":[
        {
            "category":"Museum",
            "subcategory":"",
            "type":"Entertainment"
        }
    ],
    "sg:owner":"simplegeo",
    "sg:phone":"+1 802 525 3031",
    "sg:postcode":"05839",
    "sg:province":"VT",
    "src:geom":"mudf",
    "wof:airports":[],
    "wof:belongsto":[],
    "wof:breaches":[],
    "wof:concordances":{
        "mudf:mid":8405000043,
        "sg:id":"SG_54fefUEuXPdQrNY5fEn82Z_44.684134_-72.178114@1294252573"
    },
    "wof:country":"US",
    "wof:created":1464311224,
    "wof:geomhash":"c864dfb2d2988f6e65d1453c3b95ea13",
    "wof:hierarchy":[],
    "wof:id":874048109,
    "wof:lastmodified":1534535336,
    "wof:name":"Bread And Puppet Theatre",
    "wof:parent_id":-1,
    "wof:placetype":"venue",
    "wof:repo":"whosonfirst-data-venue-us-vt",
    "wof:superseded_by":[],
    "wof:supersedes":[],
    "wof:tags":[]
},
  "bbox": [
    -72.174,
    44.68315,
    -72.174,
    44.68315
],
  "geometry": {"coordinates":[-72.17400000000001,44.68315],"type":"Point"}
}